GLOBALSTAR M073         
1 37193U 10054F   24267.78191535 -.00000071  00000+0  18445-3 0  9996
2 37193  52.0051 186.2991 0000722  75.9503 313.2935 12.62269895644194
GLOBALSTAR M083         
1 37739U 11033A   24267.94968116 -.00000089  00000+0  79783-4 0  9997
2 37739  51.9841 134.8835 0000906  64.8061 307.9946 12.62264994613239
GLOBALSTAR M088         
1 37740U 11033B   24267.79450847 -.00000102  00000+0  12249-4 0  9999
2 37740  51.9747  41.0668 0000823  87.4468  60.9083 12.62267734608753
GLOBALSTAR M091         
1 37741U 11033C   24267.73096219 -.00000081  00000+0  12602-3 0  9991
2 37741  52.0023   4.3442 0000669  76.5580  80.8562 12.62267271609533
GLOBALSTAR M085         
1 37742U 11033D   24267.87872701 -.00000076  00000+0  15521-3 0  9992
2 37742  51.9877 315.1697 0000475  71.5141  99.0003 12.62266250610065
GLOBALSTAR M081         
1 37743U 11033E   24267.90528947 -.00000072  00000+0  17659-3 0  9997
2 37743  51.9971 317.7113 0000684  85.0802  86.2284 12.62269698610213
GLOBALSTAR M089         
1 37744U 11033F   24267.78672159 -.00000071  00000+0  18019-3 0  9999
2 37744  51.9915 272.3516 0000570 119.2481  51.3861 12.62269271611045
